{
  "type": "FeatureCollection",
  "features": [
    {
      "type": "Feature",
      "properties": {
        "norad_id": 50032,
        "name": "COSMOS 1408 DEB",
        "group": "cosmos-1408-debris",
        "lat": 39.36004892144063,
        "lon": 63.81206316873227,
        "alt_km": 436.437900241679,
        "timestamp": "2025-12-13T13:34:35.315208+00:00",
        "meta_object_name": "COSMOS 1408 DEB",
        "meta_object_id": "1982-092RU",
        "meta_epoch": "2025-12-12T15:39:09.139968",
        "meta_mean_motion": 15.45692174,
        "meta_eccentricity": 0.00152369,
        "meta_inclination": 82.5643,
        "meta_ra_of_asc_node": 58.5985,
        "meta_arg_of_pericenter": 208.8397,
        "meta_mean_anomaly": 151.2012,
        "meta_ephemeris_type": 0,
        "meta_classification_type": "U",
        "meta_norad_cat_id": 50032,
        "meta_element_set_no": 999,
        "meta_rev_at_epoch": 22602,
        "meta_bstar": 0.00014991822,
        "meta_mean_motion_dot": 7.305e-05,
        "meta_mean_motion_ddot": 0,
        "tle_line1": "1 50032U 82092RU  25346.65218912  .00007305  00000+0  14992-3 0  9997",
        "tle_line2": "2 50032  82.5643  58.5985 0015236 208.8397 151.2012 15.45692174226022"
      },
      "geometry": {
        "type": "Point",
        "coordinates": [
          63.81206316873227,
          39.36004892144063
        ]
      }
    },
    {
      "type": "Feature",
      "properties": {
        "norad_id": 50058,
        "name": "COSMOS 1408 DEB",
        "group": "cosmos-1408-debris",
        "lat": -62.827974322640166,
        "lon": 53.83807190634012,
        "alt_km": 393.1638865508221,
        "timestamp": "2025-12-13T13:34:35.315226+00:00",
        "meta_object_name": "COSMOS 1408 DEB",
        "meta_object_id": "1982-092SW",
        "meta_epoch": "2025-12-12T16:21:12.107232",
        "meta_mean_motion": 15.64089875,
        "meta_eccentricity": 0.00163361,
        "meta_inclination": 82.6136,
        "meta_ra_of_asc_node": 69.4027,
        "meta_arg_of_pericenter": 98.4134,
        "meta_mean_anomaly": 261.8978,
        "meta_ephemeris_type": 0,
        "meta_classification_type": "U",
        "meta_norad_cat_id": 50058,
        "meta_element_set_no": 999,
        "meta_rev_at_epoch": 22803,
        "meta_bstar": 0.00043572408,
        "meta_mean_motion_dot": 0.00041655,
        "meta_mean_motion_ddot": 0,
        "tle_line1": "1 50058U 82092SW  25346.68139013  .00041655  00000+0  43572-3 0  9994",
        "tle_line2": "2 50058  82.6136  69.4027 0016336  98.4134 261.8978 15.64089875228031"
      },
      "geometry": {
        "type": "Point",
        "coordinates": [
          53.83807190634012,
          -62.827974322640166
        ]
      }
    },
    {
      "type": "Feature",
      "properties": {
        "norad_id": 50404,
        "name": "COSMOS 1408 DEB",
        "group": "cosmos-1408-debris",
        "lat": -76.6293074299101,
        "lon": 69.38912951515069,
        "alt_km": 476.30270650170405,
        "timestamp": "2025-12-13T13:34:35.315238+00:00",
        "meta_object_name": "COSMOS 1408 DEB",
        "meta_object_id": "1982-092ADS",
        "meta_epoch": "2025-12-12T22:09:48.585600",
        "meta_mean_motion": 15.1382944,
        "meta_eccentricity": 0.01715157,
        "meta_inclination": 82.2033,
        "meta_ra_of_asc_node": 214.8452,
        "meta_arg_of_pericenter": 198.2286,
        "meta_mean_anomaly": 161.2752,
        "meta_ephemeris_type": 0,
        "meta_classification_type": "U",
        "meta_norad_cat_id": 50404,
        "meta_element_set_no": 999,
        "meta_rev_at_epoch": 21196,
        "meta_bstar": 0.003851793,
        "meta_mean_motion_dot": 0.00101611,
        "meta_mean_motion_ddot": 0,
        "tle_line1": "1 50404U 82092ADS 25346.92347900  .00101611  00000+0  38518-2 0  9994",
        "tle_line2": "2 50404  82.2033 214.8452 0171515 198.2286 161.2752 15.13829440211965"
      },
      "geometry": {
        "type": "Point",
        "coordinates": [
          69.38912951515069,
          -76.6293074299101
        ]
      }
    },
    {
      "type": "Feature",
      "properties": {
        "norad_id": 50621,
        "name": "COSMOS 1408 DEB",
        "group": "cosmos-1408-debris",
        "lat": -68.0273895892715,
        "lon": 54.448536525317955,
        "alt_km": 419.7152116989437,
        "timestamp": "2025-12-13T13:34:35.315248+00:00",
        "meta_object_name": "COSMOS 1408 DEB",
        "meta_object_id": "1982-092ALR",
        "meta_epoch": "2025-12-12T16:16:35.823360",
        "meta_mean_motion": 15.56652836,
        "meta_eccentricity": 0.00288991,
        "meta_inclination": 82.5701,
        "meta_ra_of_asc_node": 74.2441,
        "meta_arg_of_pericenter": 152.68,
        "meta_mean_anomaly": 207.5983,
        "meta_ephemeris_type": 0,
        "meta_classification_type": "U",
        "meta_norad_cat_id": 50621,
        "meta_element_set_no": 999,
        "meta_rev_at_epoch": 22249,
        "meta_bstar": 0.00050710514,
        "meta_mean_motion_dot": 0.00036954,
        "meta_mean_motion_ddot": 0,
        "tle_line1": "1 50621U 82092ALR 25346.67819240  .00036954  00000+0  50711-3 0  9995",
        "tle_line2": "2 50621  82.5701  74.2441 0028899 152.6800 207.5983 15.56652836222499"
      },
      "geometry": {
        "type": "Point",
        "coordinates": [
          54.448536525317955,
          -68.0273895892715
        ]
      }
    }
  ]
}